{
  "type": "FeatureCollection",
  "features": [
    {
      "type": "Feature",
      "properties": {
        "norad_id": 33887,
        "name": "IRIDIUM 33 DEB",
        "group": "iridium-33-debris",
        "lat": -14.890077414127193,
        "lon": -3.982211682404469,
        "alt_km": 776.6924981047741,
        "timestamp": "2025-12-27T13:34:49.680481+00:00",
        "meta_object_name": "IRIDIUM 33 DEB",
        "meta_object_id": "1997-051BG",
        "meta_epoch": "2025-12-27T00:31:57.064800",
        "meta_mean_motion": 14.372341,
        "meta_eccentricity": 0.00060101,
        "meta_inclination": 86.3043,
        "meta_ra_of_asc_node": 357.2367,
        "meta_arg_of_pericenter": 173.3185,
        "meta_mean_anomaly": 240.7076,
        "meta_ephemeris_type": 0,
        "meta_classification_type": "U",
        "meta_norad_cat_id": 33887,
        "meta_element_set_no": 999,
        "meta_rev_at_epoch": 88370,
        "meta_bstar": 0.00017796673,
        "meta_mean_motion_dot": 5.5e-06,
        "meta_mean_motion_ddot": 0,
        "tle_line1": "1 33887U 97051BG  25361.02218825  .00000550  00000+0  17797-3 0  9999",
        "tle_line2": "2 33887  86.3043 357.2367 0006010 173.3185 240.7076 14.37234100883700"
      },
      "geometry": {
        "type": "Point",
        "coordinates": [
          -3.982211682404469,
          -14.890077414127193
        ]
      }
    },
    {
      "type": "Feature",
      "properties": {
        "norad_id": 33953,
        "name": "IRIDIUM 33 DEB",
        "group": "iridium-33-debris",
        "lat": 86.21323903924902,
        "lon": 120.19448472376733,
        "alt_km": 689.9043971361671,
        "timestamp": "2025-12-27T13:34:49.680491+00:00",
        "meta_object_name": "IRIDIUM 33 DEB",
        "meta_object_id": "1997-051BN",
        "meta_epoch": "2025-12-27T03:31:11.629632",
        "meta_mean_motion": 14.55459048,
        "meta_eccentricity": 0.00173983,
        "meta_inclination": 86.3835,
        "meta_ra_of_asc_node": 47.5249,
        "meta_arg_of_pericenter": 58.4623,
        "meta_mean_anomaly": 355.3188,
        "meta_ephemeris_type": 0,
        "meta_classification_type": "U",
        "meta_norad_cat_id": 33953,
        "meta_element_set_no": 999,
        "meta_rev_at_epoch": 88513,
        "meta_bstar": 0.0012769031,
        "meta_mean_motion_dot": 5.584e-05,
        "meta_mean_motion_ddot": 0,
        "tle_line1": "1 33953U 97051BN  25361.14666238  .00005584  00000+0  12769-2 0  9996",
        "tle_line2": "2 33953  86.3835  47.5249 0017398  58.4623 355.3188 14.55459048885138"
      },
      "geometry": {
        "type": "Point",
        "coordinates": [
          120.19448472376733,
          86.21323903924902
        ]
      }
    },
    {
      "type": "Feature",
      "properties": {
        "norad_id": 33960,
        "name": "IRIDIUM 33 DEB",
        "group": "iridium-33-debris",
        "lat": 60.50936351216672,
        "lon": -70.82517366529083,
        "alt_km": 600.3663724755907,
        "timestamp": "2025-12-27T13:34:49.680502+00:00",
        "meta_object_name": "IRIDIUM 33 DEB",
        "meta_object_id": "1997-051BV",
        "meta_epoch": "2025-12-27T05:54:29.267712",
        "meta_mean_motion": 14.85940294,
        "meta_eccentricity": 0.00069595,
        "meta_inclination": 86.2534,
        "meta_ra_of_asc_node": 282.6722,
        "meta_arg_of_pericenter": 37.6195,
        "meta_mean_anomaly": 114.1546,
        "meta_ephemeris_type": 0,
        "meta_classification_type": "U",
        "meta_norad_cat_id": 33960,
        "meta_element_set_no": 999,
        "meta_rev_at_epoch": 89082,
        "meta_bstar": 0.00338648,
        "meta_mean_motion_dot": 0.00029672,
        "meta_mean_motion_ddot": 0,
        "tle_line1": "1 33960U 97051BV  25361.24617208  .00029672  00000+0  33865-2 0  9992",
        "tle_line2": "2 33960  86.2534 282.6722 0006959  37.6195 114.1546 14.85940294890825"
      },
      "geometry": {
        "type": "Point",
        "coordinates": [
          -70.82517366529083,
          60.50936351216672
        ]
      }
    },
    {
      "type": "Feature",
      "properties": {
        "norad_id": 33966,
        "name": "IRIDIUM 33 DEB",
        "group": "iridium-33-debris",
        "lat": -85.53711123466574,
        "lon": -86.3742089419698,
        "alt_km": 737.8566643134418,
        "timestamp": "2025-12-27T13:34:49.680512+00:00",
        "meta_object_name": "IRIDIUM 33 DEB",
        "meta_object_id": "1997-051CB",
        "meta_epoch": "2025-12-27T02:41:52.155744",
        "meta_mean_motion": 14.49650028,
        "meta_eccentricity": 0.00089494,
        "meta_inclination": 86.391,
        "meta_ra_of_asc_node": 39.858,
        "meta_arg_of_pericenter": 144.2354,
        "meta_mean_anomaly": 278.1615,
        "meta_ephemeris_type": 0,
        "meta_classification_type": "U",
        "meta_norad_cat_id": 33966,
        "meta_element_set_no": 999,
        "meta_rev_at_epoch": 88650,
        "meta_bstar": 0.00056095778,
        "meta_mean_motion_dot": 2.176e-05,
        "meta_mean_motion_ddot": 0,
        "tle_line1": "1 33966U 97051CB  25361.11240921  .00002176  00000+0  56096-3 0  9990",
        "tle_line2": "2 33966  86.3910  39.8580 0008949 144.2354 278.1615 14.49650028886508"
      },
      "geometry": {
        "type": "Point",
        "coordinates": [
          -86.3742089419698,
          -85.53711123466574
        ]
      }
    },
    {
      "type": "Feature",
      "properties": {
        "norad_id": 34071,
        "name": "IRIDIUM 33 DEB",
        "group": "iridium-33-debris",
        "lat": -33.14801209332356,
        "lon": 8.990809805356578,
        "alt_km": 734.7244176476015,
        "timestamp": "2025-12-27T13:34:49.680522+00:00",
        "meta_object_name": "IRIDIUM 33 DEB",
        "meta_object_id": "1997-051CE",
        "meta_epoch": "2025-12-27T07:06:22.788576",
        "meta_mean_motion": 14.49530305,
        "meta_eccentricity": 0.00097732,
        "meta_inclination": 86.3454,
        "meta_ra_of_asc_node": 11.5003,
        "meta_arg_of_pericenter": 68.6882,
        "meta_mean_anomaly": 291.5364,
        "meta_ephemeris_type": 0,
        "meta_classification_type": "U",
        "meta_norad_cat_id": 34071,
        "meta_element_set_no": 999,
        "meta_rev_at_epoch": 88545,
        "meta_bstar": 0.0007017711,
        "meta_mean_motion_dot": 2.711e-05,
        "meta_mean_motion_ddot": 0,
        "tle_line1": "1 34071U 97051CE  25361.29609709  .00002711  00000+0  70177-3 0  9991",
        "tle_line2": "2 34071  86.3454  11.5003 0009773  68.6882 291.5364 14.49530305885455"
      },
      "geometry": {
        "type": "Point",
        "coordinates": [
          8.990809805356578,
          -33.14801209332356
        ]
      }
    },
    {
      "type": "Feature",
      "properties": {
        "norad_id": 34077,
        "name": "IRIDIUM 33 DEB",
        "group": "iridium-33-debris",
        "lat": -86.12047941234817,
        "lon": -23.817261885449053,
        "alt_km": 683.2279505860943,
        "timestamp": "2025-12-27T13:34:49.680533+00:00",
        "meta_object_name": "IRIDIUM 33 DEB",
        "meta_object_id": "1997-051CL",
        "meta_epoch": "2025-12-27T02:47:01.299264",
        "meta_mean_motion": 14.65029406,
        "meta_eccentricity": 0.00085356,
        "meta_inclination": 86.3849,
        "meta_ra_of_asc_node": 45.1729,
        "meta_arg_of_pericenter": 351.6698,
        "meta_mean_anomaly": 68.7285,
        "meta_ephemeris_type": 0,
        "meta_classification_type": "U",
        "meta_norad_cat_id": 34077,
        "meta_element_set_no": 999,
        "meta_rev_at_epoch": 88543,
        "meta_bstar": 0.0019034333,
        "meta_mean_motion_dot": 0.00010235,
        "meta_mean_motion_ddot": 0,
        "tle_line1": "1 34077U 97051CL  25361.11598726  .00010235  00000+0  19034-2 0  9998",
        "tle_line2": "2 34077  86.3849  45.1729 0008535 351.6698  68.7285 14.65029406885439"
      },
      "geometry": {
        "type": "Point",
        "coordinates": [
          -23.817261885449053,
          -86.12047941234817
        ]
      }
    },
    {
      "type": "Feature",
      "properties": {
        "norad_id": 34079,
        "name": "IRIDIUM 33 DEB",
        "group": "iridium-33-debris",
        "lat": -5.034587469551238,
        "lon": -177.7630960123624,
        "alt_km": 622.1226119770135,
        "timestamp": "2025-12-27T13:34:49.680543+00:00",
        "meta_object_name": "IRIDIUM 33 DEB",
        "meta_object_id": "1997-051CN",
        "meta_epoch": "2025-12-27T06:20:21.475680",
        "meta_mean_motion": 14.83933448,
        "meta_eccentricity": 0.00036894,
        "meta_inclination": 86.3777,
        "meta_ra_of_asc_node": 2.0544,
        "meta_arg_of_pericenter": 310.6611,
        "meta_mean_anomaly": 63.5436,
        "meta_ephemeris_type": 0,
        "meta_classification_type": "U",
        "meta_norad_cat_id": 34079,
        "meta_element_set_no": 999,
        "meta_rev_at_epoch": 89193,
        "meta_bstar": 0.0021800148,
        "meta_mean_motion_dot": 0.00018168,
        "meta_mean_motion_ddot": 0,
        "tle_line1": "1 34079U 97051CN  25361.26413745  .00018168  00000+0  21800-2 0  9990",
        "tle_line2": "2 34079  86.3777   2.0544 0003689 310.6611  63.5436 14.83933448891936"
      },
      "geometry": {
        "type": "Point",
        "coordinates": [
          -177.7630960123624,
          -5.034587469551238
        ]
      }
    }
  ]
}